{
  "type": "FeatureCollection",
  "features": [
    {
      "type": "Feature",
      "properties": {
        "norad_id": 34852,
        "name": "COSMOS 2251 DEB",
        "group": "cosmos-2251-debris",
        "lat": 7.516580633552489,
        "lon": 63.33111230866053,
        "alt_km": 781.7595189063377,
        "timestamp": "2025-12-22T05:49:03.896537+00:00",
        "meta_object_name": "COSMOS 2251 DEB",
        "meta_object_id": "1993-036ABW",
        "meta_epoch": "2025-12-21T10:38:26.088000",
        "meta_mean_motion": 14.37011249,
        "meta_eccentricity": 0.00165692,
        "meta_inclination": 74.0325,
        "meta_ra_of_asc_node": 246.9652,
        "meta_arg_of_pericenter": 348.3014,
        "meta_mean_anomaly": 11.7752,
        "meta_ephemeris_type": 0,
        "meta_classification_type": "U",
        "meta_norad_cat_id": 34852,
        "meta_element_set_no": 999,
        "meta_rev_at_epoch": 87659,
        "meta_bstar": 9.6957767e-05,
        "meta_mean_motion_dot": 2.62e-06,
        "meta_mean_motion_ddot": 0,
        "tle_line1": "1 34852U 93036ABW 25355.44335750  .00000262  00000+0  96958-4 0  9994",
        "tle_line2": "2 34852  74.0325 246.9652 0016569 348.3014  11.7752 14.37011249876599"
      },
      "geometry": {
        "type": "Point",
        "coordinates": [
          63.33111230866053,
          7.516580633552489
        ]
      }
    },
    {
      "type": "Feature",
      "properties": {
        "norad_id": 34854,
        "name": "COSMOS 2251 DEB",
        "group": "cosmos-2251-debris",
        "lat": -7.836919521164133,
        "lon": 137.69609102466234,
        "alt_km": 652.9595736279707,
        "timestamp": "2025-12-22T05:49:03.896550+00:00",
        "meta_object_name": "COSMOS 2251 DEB",
        "meta_object_id": "1993-036ABY",
        "meta_epoch": "2025-12-20T16:27:30.286080",
        "meta_mean_motion": 14.76695376,
        "meta_eccentricity": 0.00660109,
        "meta_inclination": 74.029,
        "meta_ra_of_asc_node": 143.0056,
        "meta_arg_of_pericenter": 253.0888,
        "meta_mean_anomaly": 106.3042,
        "meta_ephemeris_type": 0,
        "meta_classification_type": "U",
        "meta_norad_cat_id": 34854,
        "meta_element_set_no": 999,
        "meta_rev_at_epoch": 71999,
        "meta_bstar": 0.00047616561,
        "meta_mean_motion_dot": 3.419e-05,
        "meta_mean_motion_ddot": 0,
        "tle_line1": "1 34854U 93036ABY 25354.68576720  .00003419  00000+0  47617-3 0  9999",
        "tle_line2": "2 34854  74.0290 143.0056 0066010 253.0888 106.3042 14.76695376719999"
      },
      "geometry": {
        "type": "Point",
        "coordinates": [
          137.69609102466234,
          -7.836919521164133
        ]
      }
    },
    {
      "type": "Feature",
      "properties": {
        "norad_id": 34856,
        "name": "COSMOS 2251 DEB",
        "group": "cosmos-2251-debris",
        "lat": -2.0047250036129163,
        "lon": 64.72932812925426,
        "alt_km": 569.9141112045781,
        "timestamp": "2025-12-22T05:49:03.896561+00:00",
        "meta_object_name": "COSMOS 2251 DEB",
        "meta_object_id": "1993-036ACA",
        "meta_epoch": "2025-12-21T06:10:09.463008",
        "meta_mean_motion": 15.06460238,
        "meta_eccentricity": 0.0031595,
        "meta_inclination": 73.9992,
        "meta_ra_of_asc_node": 67.3313,
        "meta_arg_of_pericenter": 203.826,
        "meta_mean_anomaly": 212.4646,
        "meta_ephemeris_type": 0,
        "meta_classification_type": "U",
        "meta_norad_cat_id": 34856,
        "meta_element_set_no": 999,
        "meta_rev_at_epoch": 89240,
        "meta_bstar": 0.0012375,
        "meta_mean_motion_dot": 0.00018479,
        "meta_mean_motion_ddot": 0,
        "tle_line1": "1 34856U 93036ACA 25355.25705397  .00018479  00000+0  12375-2 0  9993",
        "tle_line2": "2 34856  73.9992  67.3313 0031595 203.8260 212.4646 15.06460238892407"
      },
      "geometry": {
        "type": "Point",
        "coordinates": [
          64.72932812925426,
          -2.0047250036129163
        ]
      }
    },
    {
      "type": "Feature",
      "properties": {
        "norad_id": 34857,
        "name": "COSMOS 2251 DEB",
        "group": "cosmos-2251-debris",
        "lat": -8.363078988058492,
        "lon": -88.88061950148732,
        "alt_km": 657.3650084039755,
        "timestamp": "2025-12-22T05:49:03.896571+00:00",
        "meta_object_name": "COSMOS 2251 DEB",
        "meta_object_id": "1993-036ACB",
        "meta_epoch": "2025-12-21T06:02:52.653120",
        "meta_mean_motion": 14.5896988,
        "meta_eccentricity": 0.0065499,
        "meta_inclination": 74.0163,
        "meta_ra_of_asc_node": 90.5928,
        "meta_arg_of_pericenter": 213.4962,
        "meta_mean_anomaly": 175.5877,
        "meta_ephemeris_type": 0,
        "meta_classification_type": "U",
        "meta_norad_cat_id": 34857,
        "meta_element_set_no": 999,
        "meta_rev_at_epoch": 88025,
        "meta_bstar": 0.00077727,
        "meta_mean_motion_dot": 3.728e-05,
        "meta_mean_motion_ddot": 0,
        "tle_line1": "1 34857U 93036ACB 25355.25199830  .00003728  00000+0  77727-3 0  9997",
        "tle_line2": "2 34857  74.0163  90.5928 0065499 213.4962 175.5877 14.58969880880254"
      },
      "geometry": {
        "type": "Point",
        "coordinates": [
          -88.88061950148732,
          -8.363078988058492
        ]
      }
    },
    {
      "type": "Feature",
      "properties": {
        "norad_id": 34859,
        "name": "COSMOS 2251 DEB",
        "group": "cosmos-2251-debris",
        "lat": -73.61464349338986,
        "lon": -117.05897690165305,
        "alt_km": 524.9744970408037,
        "timestamp": "2025-12-22T05:49:03.896582+00:00",
        "meta_object_name": "COSMOS 2251 DEB",
        "meta_object_id": "1993-036ACD",
        "meta_epoch": "2025-12-20T00:39:03.765024",
        "meta_mean_motion": 15.15832734,
        "meta_eccentricity": 0.00020914,
        "meta_inclination": 74.0278,
        "meta_ra_of_asc_node": 324.4843,
        "meta_arg_of_pericenter": 20.5726,
        "meta_mean_anomaly": 48.6407,
        "meta_ephemeris_type": 0,
        "meta_classification_type": "U",
        "meta_norad_cat_id": 34859,
        "meta_element_set_no": 999,
        "meta_rev_at_epoch": 88469,
        "meta_bstar": 0.0027292363,
        "meta_mean_motion_dot": 0.00052535,
        "meta_mean_motion_ddot": 0,
        "tle_line1": "1 34859U 93036ACD 25354.02712691  .00052535  00000+0  27292-2 0  9990",
        "tle_line2": "2 34859  74.0278 324.4843 0002091  20.5726  48.6407 15.15832734884694"
      },
      "geometry": {
        "type": "Point",
        "coordinates": [
          -117.05897690165305,
          -73.61464349338986
        ]
      }
    },
    {
      "type": "Feature",
      "properties": {
        "norad_id": 34861,
        "name": "COSMOS 2251 DEB",
        "group": "cosmos-2251-debris",
        "lat": 65.3877970582623,
        "lon": 172.70164690318407,
        "alt_km": 550.38994000605,
        "timestamp": "2025-12-22T05:49:03.896592+00:00",
        "meta_object_name": "COSMOS 2251 DEB",
        "meta_object_id": "1993-036ACF",
        "meta_epoch": "2025-12-21T20:31:48.902304",
        "meta_mean_motion": 15.03073934,
        "meta_eccentricity": 0.0008148,
        "meta_inclination": 74.0179,
        "meta_ra_of_asc_node": 32.222,
        "meta_arg_of_pericenter": 22.2074,
        "meta_mean_anomaly": 153.5336,
        "meta_ephemeris_type": 0,
        "meta_classification_type": "U",
        "meta_norad_cat_id": 34861,
        "meta_element_set_no": 999,
        "meta_rev_at_epoch": 88229,
        "meta_bstar": 0.0019691,
        "meta_mean_motion_dot": 0.00026634,
        "meta_mean_motion_ddot": 0,
        "tle_line1": "1 34861U 93036ACF 25355.85542711  .00026634  00000+0  19691-2 0  9994",
        "tle_line2": "2 34861  74.0179  32.2220 0008148  22.2074 153.5336 15.03073934882291"
      },
      "geometry": {
        "type": "Point",
        "coordinates": [
          172.70164690318407,
          65.3877970582623
        ]
      }
    },
    {
      "type": "Feature",
      "properties": {
        "norad_id": 34874,
        "name": "COSMOS 2251 DEB",
        "group": "cosmos-2251-debris",
        "lat": -50.54606859964604,
        "lon": 35.96582272541098,
        "alt_km": 801.3290399077141,
        "timestamp": "2025-12-22T05:49:03.896603+00:00",
        "meta_object_name": "COSMOS 2251 DEB",
        "meta_object_id": "1993-036ACM",
        "meta_epoch": "2025-12-19T15:14:26.431296",
        "meta_mean_motion": 14.36339936,
        "meta_eccentricity": 0.0050622,
        "meta_inclination": 74.0394,
        "meta_ra_of_asc_node": 61.1016,
        "meta_arg_of_pericenter": 84.2082,
        "meta_mean_anomaly": 65.9606,
        "meta_ephemeris_type": 0,
        "meta_classification_type": "U",
        "meta_norad_cat_id": 34874,
        "meta_element_set_no": 999,
        "meta_rev_at_epoch": 87143,
        "meta_bstar": 0.00053501,
        "meta_mean_motion_dot": 1.563e-05,
        "meta_mean_motion_ddot": 0,
        "tle_line1": "1 34874U 93036ACM 25353.63502814  .00001563  00000+0  53501-3 0  9995",
        "tle_line2": "2 34874  74.0394  61.1016 0050622  84.2082  65.9606 14.36339936871431"
      },
      "geometry": {
        "type": "Point",
        "coordinates": [
          35.96582272541098,
          -50.54606859964604
        ]
      }
    }
  ]
}